QZS-3-PRN-199-189
1 42917U 17048A   23124.48397336 -.00000334  00000+0  00000+0 0  9997
2 42917   0.0555 176.1424 0002528 228.0031 119.1869  1.00268226 20833
